NORAD_CAT_ID,OBJECT_NAME,OBJECT_TYPE,EPOCH,MEAN_MOTION,ECCENTRICITY,INCLINATION,RA_OF_ASC_NODE,ARG_OF_PERICENTER,MEAN_ANOMALY,BSTAR,MEAN_MOTION_DOT,MEAN_MOTION_DDOT,TLE_LINE0,TLE_LINE1,TLE_LINE2,SEMIMAJOR_AXIS,PERIOD,APOGEE,PERIGEE,DECAYED
53908.0,STARLINK-5057,PAYLOAD,2023-01-14 13:38:42,15.08840813,0.0001435,53.2195,77.347,105.0455,255.0696,0.00017293,2.465e-05,0.0,0 STARLINK-5057,1 53908U 22119Y   23014.56854507  .00002465  00000-0  17293-3 0  9992,2 53908  53.2195  77.3470 0001435 105.0455 255.0696 15.08840813 17776,6917.878000000001,95.438,540.736,538.75,0.0
53908.0,STARLINK-5057,PAYLOAD,2023-01-14 21:35:39,15.08829459,0.000155,53.2177,75.8655,88.5489,271.5681,2.8544e-05,1.66e-06,0.0,0 STARLINK-5057,1 53908U 22119Y   23014.89976009  .00000166  00000-0  28544-4 0  9998,2 53908  53.2177  75.8655 0001550  88.5489 271.5681 15.08829459 17820,6917.9130000000005,95.438,540.85,538.705,0.0
53908.0,STARLINK-5057,PAYLOAD,2023-01-15 13:29:29,15.0884955,0.000147,53.2179,72.8921,88.3759,271.7401,9.9006e-05,1.288e-05,0.0,0 STARLINK-5057,1 53908U 22119Y   23015.56214931  .00001288  00000-0  99006-4 0  9999,2 53908  53.2179  72.8921 0001470  88.3759 271.7401 15.08849550 17921,6917.851,95.437,540.7330000000001,538.6990000000001,0.0
53908.0,STARLINK-5057,PAYLOAD,2023-01-16 10:09:29,15.08860322,0.0001242,53.217,69.0237,107.4717,252.6411,0.00017947,2.571e-05,0.0,0 STARLINK-5057,1 53908U 22119Y   23016.42325599  .00002571  00000-0  17947-3 0  9997,2 53908  53.2170  69.0237 0001242 107.4717 252.6411 15.08860322 18058,6917.818,95.436,540.5419999999999,538.8240000000001,0.0
53908.0,STARLINK-5057,PAYLOAD,2023-01-16 13:20:15,15.088634699999998,0.0001325,53.219,68.4264,109.2215,250.8921,7.7869e-05,9.52e-06,0.0,0 STARLINK-5057,1 53908U 22119Y   23016.55573621  .00000952  00000-0  77869-4 0  9993,2 53908  53.2190  68.4264 0001325 109.2215 250.8921 15.08863470 18499,6917.809,95.436,540.59,538.757,0.0
53908.0,STARLINK-5057,PAYLOAD,2023-01-17 03:38:47,15.08810893,0.0002147,53.2174,65.7512,133.6404,226.4767,-0.00013798,-2.482e-05,0.0,0 STARLINK-5057,1 53908U 22119Y   23017.15194109 -.00002482  00000-0 -13798-3 0  9992,2 53908  53.2174  65.7512 0002147 133.6404 226.4767 15.08810893 18163,6917.969,95.439,541.32,538.349,0.0
53908.0,STARLINK-5057,PAYLOAD,2023-01-17 22:43:25,15.08826031,0.0002643,53.2159,62.1809,136.3935,223.7266,-0.00011068,-2.049e-05,0.0,0 STARLINK-5057,1 53908U 22119Y   23017.94681791 -.00002049  00000-0 -11068-3 0  9994,2 53908  53.2159  62.1809 0002643 136.3935 223.7266 15.08826031 18284,6917.923000000001,95.438,541.616,537.96,0.0
53908.0,STARLINK-5057,PAYLOAD,2023-01-18 09:51:05,15.08851311,0.0001792,53.2199,60.108,135.6835,224.4301,7.4914e-05,9.05e-06,0.0,0 STARLINK-5057,1 53908U 22119Y   23018.41047786  .00000905  00000-0  74914-4 0  9994,2 53908  53.2199  60.1080 0001792 135.6835 224.4301 15.08851311 18357,6917.846,95.437,540.95,538.471,0.0
53908.0,STARLINK-5057,PAYLOAD,2023-01-18 11:26:27,15.08866319,0.0001064,53.2179,59.805,117.2414,242.8687,4.77e-05,4.72e-06,0.0,0 STARLINK-5057,1 53908U 22119Y   23018.47670897  .00000472  00000-0  47700-4 0  9997,2 53908  53.2179  59.8050 0001064 117.2414 242.8687 15.08866319 18780,6917.8,95.436,540.401,538.929,0.0
53908.0,STARLINK-5057,PAYLOAD,2023-01-18 19:23:22,15.0887345,0.0001281999999999,53.2191,58.321000000000005,113.6044,246.5083,6.5214e-05,7.51e-06,0.0,0 STARLINK-5057,1 53908U 22119Y   23018.80789874  .00000751  00000-0  65214-4 0  9990,2 53908  53.2191  58.3210 0001282 113.6044 246.5083 15.08873450 18838,6917.778,95.435,540.53,538.756,0.0
53908.0,STARLINK-5057,PAYLOAD,2023-01-19 03:20:20,15.08823558,3.72e-05,53.2178,56.834,130.7513,229.3511,0.00014682,2.049e-05,0.0,0 STARLINK-5057,1 53908U 22119Y   23019.13913048  .00002049  00000-0  14682-3 0  9993,2 53908  53.2178  56.8340 0000372 130.7513 229.3511 15.08823558 18468,6917.931,95.439,540.053,539.538,0.0
53908.0,STARLINK-5057,PAYLOAD,2023-01-19 11:17:15,15.08840877,0.0001425,53.2191,55.3439,135.0164,225.0944,0.00016201,2.291e-05,0.0,0 STARLINK-5057,1 53908U 22119Y   23019.47031949  .00002291  00000-0  16201-3 0  9999,2 53908  53.2191  55.3439 0001425 135.0164 225.0944 15.08840877 18518,6917.878000000001,95.437,540.729,538.757,0.0
53908.0,STARLINK-5057,PAYLOAD,2023-01-19 12:52:38,15.08841557,0.000152,53.219,55.04600000000001,136.6603,223.4509,0.00015821,2.231e-05,0.0,0 STARLINK-5057,1 53908U 22119Y   23019.53655891  .00002231  00000-0  15821-3 0  9995,2 53908  53.2190  55.0460 0001520 136.6603 223.4509 15.08841557 18941,6917.876,95.437,540.7919999999999,538.689,0.0
53908.0,STARLINK-5057,PAYLOAD,2023-01-19 19:14:12,15.08843489,0.000187,53.2176,53.8562,114.0326,246.0862,-4.3377e-05,-9.79e-06,0.0,0 STARLINK-5057,1 53908U 22119Y   23019.80152953 -.00000979  00000-0 -43377-4 0  9993,2 53908  53.2176  53.8562 0001870 114.0326 246.0862 15.08843489 18561,6917.87,95.437,541.028,538.441,0.0
53908.0,STARLINK-5057,PAYLOAD,2023-01-20 09:32:40,15.08837558,0.0001575,53.2192,51.1845,126.6243,233.4894,-8.103e-05,-1.577e-05,0.0,0 STARLINK-5057,1 53908U 22119Y   23020.39769284 -.00001577  00000-0 -81030-4 0  9993,2 53908  53.2192  51.1845 0001575 126.6243 233.4894 15.08837558 19075,6917.888000000001,95.438,540.842,538.663,0.0
53908.0,STARLINK-5057,PAYLOAD,2023-01-20 19:04:59,15.08835323,0.0001185,53.2183,49.3989,116.9929,243.1184,-0.00026572,-4.514e-05,0.0,0 STARLINK-5057,1 53908U 22119Y   23020.79513866 -.00004514  00000-0 -26572-3 0  9993,2 53908  53.2183  49.3989 0001185 116.9929 243.1184 15.08835323 18711,6917.895,95.438,540.5790000000001,538.94,0.0
53908.0,STARLINK-5057,PAYLOAD,2023-01-21 07:48:04,15.08831205,9.37e-05,53.2196,47.0236,121.3029,238.8055,4.986e-06,-2.08e-06,0.0,0 STARLINK-5057,1 53908U 22119Y   23021.32505306 -.00000208  00000-0  49860-5 0  9995,2 53908  53.2196  47.0236 0000937 121.3029 238.8055 15.08831205 18791,6917.906999999999,95.438,540.42,539.124,0.0
53908.0,STARLINK-5057,PAYLOAD,2023-01-22 10:49:37,15.08845239,0.0001132,53.2183,41.9612,113.9186,246.1925,6.0187e-05,6.7e-06,0.0,0 STARLINK-5057,1 53908U 22119Y   23022.45112335  .00000670  00000-0  60187-4 0  9992,2 53908  53.2183  41.9612 0001132 113.9186 246.1925 15.08845239 18966,6917.8640000000005,95.437,540.512,538.946,0.0
53908.0,STARLINK-5057,PAYLOAD,2023-01-22 18:46:34,15.08831905,0.0001496,53.2194,40.4776,88.5736,271.5427,-7.899199999999999e-05,-1.545e-05,0.0,0 STARLINK-5057,1 53908U 22119Y   23022.78233882 -.00001545  00000-0 -78992-4 0  9996,2 53908  53.2194  40.4776 0001496  88.5736 271.5427 15.08831905 19015,6917.905,95.438,540.805,538.735,0.0
53908.0,STARLINK-5057,PAYLOAD,2023-01-24 05:45:02,15.08846272,0.0001339,53.2189,33.9362,87.5441,272.5704,-2.6773000000000003e-05,-7.14e-06,0.0,0 STARLINK-5057,1 53908U 22119Y   23024.23961321 -.00000714  00000-0 -26773-4 0  9991,2 53908  53.2189  33.9362 0001339  87.5441 272.5704 15.08846272 19231,6917.861,95.437,540.653,538.8,0.0
53908.0,STARLINK-5057,PAYLOAD,2023-01-24 10:31:11,15.08853058,0.0001368,53.2191,33.0434,89.6542,270.4607,3.7307e-05,3.06e-06,0.0,0 STARLINK-5057,1 53908U 22119Y   23024.43832577  .00000306  00000-0  37307-4 0  9993,2 53908  53.2191  33.0434 0001368  89.6542 270.4607 15.08853058 19264,6917.84,95.437,540.6519999999999,538.759,0.0
53908.0,STARLINK-5057,PAYLOAD,2023-01-24 16:52:44,15.08841007,0.0001333,53.2192,31.8527,86.3078,273.8067,-6.4146e-05,-1.309e-05,0.0,0 STARLINK-5057,1 53908U 22119Y   23024.70329608 -.00001309  00000-0 -64146-4 0  9996,2 53908  53.2192  31.8527 0001333  86.3078 273.8067 15.08841007 19307,6917.877,95.437,540.664,538.82,0.0
53908.0,STARLINK-5057,PAYLOAD,2023-01-25 07:11:13,15.08833824,0.0001205,53.2189,29.1794,89.5465,270.5665,7.8319e-05,9.59e-06,0.0,0 STARLINK-5057,1 53908U 22119Y   23025.29945910  .00000959  00000-0  78319-4 0  9996,2 53908  53.2189  29.1794 0001205  89.5465 270.5665 15.08833824 19814,6917.899,95.438,540.5980000000001,538.931,0.0
53908.0,STARLINK-5057,PAYLOAD,2023-01-25 16:43:32,15.08836095,0.0001137,53.2183,27.3957,87.4475,272.6647,3.5107e-06,-2.32e-06,0.0,0 STARLINK-5057,1 53908U 22119Y   23025.69690104 -.00000232  00000-0  35107-5 0  9996,2 53908  53.2183  27.3957 0001137  87.4475 272.6647 15.08836095 19873,6917.892,95.438,540.544,538.971,0.0
53908.0,STARLINK-5057,PAYLOAD,2023-01-26 00:40:28,15.08842949,9.940000000000002e-05,53.2182,25.9083,90.6509,269.4597,-0.00010019,-1.882e-05,0.0,0 STARLINK-5057,1 53908U 22119Y   23026.02810212 -.00001882  00000-0 -10019-3 0  9994,2 53908  53.2182  25.9083 0000994  90.6509 269.4597 15.08842949 19503,6917.871,95.437,540.424,539.049,0.0
53908.0,STARLINK-5057,PAYLOAD,2023-01-27 03:42:01,15.08835346,0.0001183,53.2194,20.8548,110.932,249.1798,4.8799e-05,4.89e-06,0.0,0 STARLINK-5057,1 53908U 22119Y   23027.15418009  .00000489  00000-0  48799-4 0  9994,2 53908  53.2194  20.8548 0001183 110.9320 249.1798 15.08835346 19673,6917.895,95.438,540.578,538.941,0.0
53908.0,STARLINK-5057,PAYLOAD,2023-01-27 06:52:47,15.08839282,9.32e-05,53.2186,20.258,100.1764,259.9333,3.3434e-05,2.44e-06,0.0,0 STARLINK-5057,1 53908U 22119Y   23027.28665832  .00000244  00000-0  33434-4 0  9995,2 53908  53.2186  20.2580 0000932 100.1764 259.9333 15.08839282 20116,6917.883000000001,95.438,540.3919999999999,539.1030000000001,0.0
53908.0,STARLINK-5057,PAYLOAD,2023-01-28 05:08:11,15.0883892,0.0001161,53.2186,16.0949,86.9777,273.1348,-4.5701e-05,-1.015e-05,0.0,0 STARLINK-5057,1 53908U 22119Y   23028.21402437 -.00001015  00000-0 -45701-4 0  9998,2 53908  53.2186  16.0949 0001161  86.9777 273.1348 15.08838920 19837,6917.884,95.438,540.552,538.946,0.0
53908.0,STARLINK-5057,PAYLOAD,2023-01-28 08:18:57,15.08845703,0.0001067,53.2186,15.4994,97.6291,262.4822,2.3048e-06,-2.51e-06,0.0,0 STARLINK-5057,1 53908U 22119Y   23028.34649814 -.00000251  00000-0  23048-5 0  9995,2 53908  53.2186  15.4994 0001067  97.6291 262.4822 15.08845703 19852,6917.863,95.437,540.466,538.99,0.0
